NORAD_CAT_ID,OBJECT_NAME,OBJECT_TYPE,EPOCH,MEAN_MOTION,ECCENTRICITY,INCLINATION,RA_OF_ASC_NODE,ARG_OF_PERICENTER,MEAN_ANOMALY,BSTAR,MEAN_MOTION_DOT,MEAN_MOTION_DDOT,TLE_LINE0,TLE_LINE1,TLE_LINE2,SEMIMAJOR_AXIS,PERIOD,APOGEE,PERIGEE,DECAYED
53617.0,STARLINK-4601,PAYLOAD,2024-06-29 03:13:03,15.08852167,0.0001378,53.2167,130.9544,97.6213,262.4936,0.00011545,1.551e-05,0.0,0 STARLINK-4601,1 53617U 22104AF  24181.13406925  .00001551  00000-0  11545-3 0  9998,2 53617  53.2167 130.9544 0001378  97.6213 262.4936 15.08852167101682,6917.843,95.437,540.661,538.755,0.0
53617.0,STARLINK-4601,PAYLOAD,2024-06-29 06:23:49,15.08853665,0.0001393,53.2167,130.3598,97.079,263.0361,0.0001291,1.768e-05,0.0,0 STARLINK-4601,1 53617U 22104AF  24181.26654762  .00001768  00000-0  12910-3 0  9993,2 53617  53.2167 130.3598 0001393  97.0790 263.0361 15.08853665102275,6917.839,95.437,540.667,538.74,0.0
53617.0,STARLINK-4601,PAYLOAD,2024-06-29 20:42:19,15.08833303,0.0001447,53.2169,127.6837,91.8657,268.2501,-9.0058e-06,-4.31e-06,0.0,0 STARLINK-4601,1 53617U 22104AF  24181.86272591 -.00000431  00000-0 -90058-5 0  9994,2 53617  53.2169 127.6837 0001447  91.8657 268.2501 15.08833303101792,6917.901,95.438,540.767,538.765,0.0
53617.0,STARLINK-4601,PAYLOAD,2024-06-30 06:14:38,15.08833265,0.000132,53.2169,125.9003,86.8321,273.2822,-1.3054e-05,-4.96e-06,0.0,0 STARLINK-4601,1 53617U 22104AF  24182.26016859 -.00000496  00000-0 -13054-4 0  9993,2 53617  53.2169 125.9003 0001320  86.8321 273.2822 15.08833265102420,6917.901,95.438,540.679,538.853,0.0
53617.0,STARLINK-4601,PAYLOAD,2024-07-01 02:54:38,15.08848176,0.0001328,53.2155,122.0353,81.2183,278.896,0.00013472,1.857e-05,0.0,0 STARLINK-4601,1 53617U 22104AF  24183.12127865  .00001857  00000-0  13472-3 0  9992,2 53617  53.2155 122.0353 0001328  81.2183 278.8960 15.08848176101985,6917.855,95.437,540.639,538.802,0.0
53617.0,STARLINK-4601,PAYLOAD,2024-07-01 12:26:57,15.08843605,0.0001286,53.2153,120.2515,78.5942,281.5195,8.4911e-05,1.064e-05,0.0,0 STARLINK-4601,1 53617U 22104AF  24183.51872051  .00001064  00000-0  84911-4 0  9996,2 53617  53.2153 120.2515 0001286  78.5942 281.5195 15.08843605102612,6917.869,95.437,540.624,538.845,0.0
53617.0,STARLINK-4601,PAYLOAD,2024-07-01 20:23:53,15.08833781,0.0001459,53.2161,118.7657,81.9464,278.1693,0.00013553,1.869e-05,0.0,0 STARLINK-4601,1 53617U 22104AF  24183.84992720  .00001869  00000-0  13553-3 0  9994,2 53617  53.2161 118.7657 0001459  81.9464 278.1693 15.08833781102090,6917.899,95.438,540.774,538.755,0.0
53617.0,STARLINK-4601,PAYLOAD,2024-07-02 12:17:44,15.08839769,0.0001497,53.2156,115.7914,84.2267,275.8896,6.0234e-05,6.71e-06,0.0,0 STARLINK-4601,1 53617U 22104AF  24184.51232446  .00000671  00000-0  60234-4 0  9990,2 53617  53.2156 115.7914 0001497  84.2267 275.8896 15.08839769102761,6917.881,95.438,540.782,538.71,0.0
53617.0,STARLINK-4601,PAYLOAD,2024-07-02 18:39:17,15.088378,0.000162,53.215,114.6022,88.8665,271.2513,5.9881e-06,-1.93e-06,0.0,0 STARLINK-4601,1 53617U 22104AF  24184.77728564 -.00000193  00000-0  59881-5 0  9996,2 53617  53.2150 114.6022 0001620  88.8665 271.2513 15.08837800102808,6917.887,95.438,540.873,538.631,0.0
53617.0,STARLINK-4601,PAYLOAD,2024-07-03 04:11:36,15.08837046,0.0001481,53.2154,112.8183,91.3761,268.7401,-6.3698e-05,-1.302e-05,0.0,0 STARLINK-4601,1 53617U 22104AF  24185.17472714 -.00001302  00000-0 -63698-4 0  9998,2 53617  53.2154 112.8183 0001481  91.3761 268.7401 15.08837046102293,6917.889,95.438,540.779,538.73,0.0
53617.0,STARLINK-4601,PAYLOAD,2024-07-03 12:08:32,15.08839119,0.000148,53.2156,111.3315,89.3093,270.8069,-2.3198e-05,-6.57e-06,0.0,0 STARLINK-4601,1 53617U 22104AF  24185.50592679 -.00000657  00000-0 -23198-4 0  9991,2 53617  53.2156 111.3315 0001480  89.3093 270.8069 15.08839119102916,6917.883,95.438,540.772,538.724,0.0
53617.0,STARLINK-4601,PAYLOAD,2024-07-04 04:02:23,15.08846503,0.0001413,53.216,108.3583,88.1807,271.9347,0.0001799,2.577e-05,0.0,0 STARLINK-4601,1 53617U 22104AF  24186.16832419  .00002577  00000-0  17990-3 0  9996,2 53617  53.2160 108.3583 0001413  88.1807 271.9347 15.08846503102444,6917.861,95.437,540.703,538.748,0.0
53617.0,STARLINK-4601,PAYLOAD,2024-07-04 11:59:19,15.08840313,0.0001318,53.2159,106.8692,80.9442,279.17,6.8341e-05,8e-06,0.0,0 STARLINK-4601,1 53617U 22104AF  24186.49952749  .00000800  00000-0  68341-4 0  9995,2 53617  53.2159 106.8692 0001318  80.9442 279.1700 15.08840313102496,6917.879,95.438,540.656,538.833,0.0
53617.0,STARLINK-4601,PAYLOAD,2024-07-04 23:07:01,15.08836336,0.0001458,53.2156,104.79,79.3329,280.7827,0.00012205,1.655e-05,0.0,0 STARLINK-4601,1 53617U 22104AF  24186.96321182  .00001655  00000-0  12205-3 0  9994,2 53617  53.2156 104.7900 0001458  79.3329 280.7827 15.08836336103133,6917.892,95.438,540.765,538.748,0.0
53617.0,STARLINK-4601,PAYLOAD,2024-07-05 11:50:06,15.08844253,0.0001344,53.2168,102.4115,84.0511,276.0634,0.00015609,2.197e-05,0.0,0 STARLINK-4601,1 53617U 22104AF  24187.49312795  .00002197  00000-0  15609-3 0  9996,2 53617  53.2168 102.4115 0001344  84.0511 276.0634 15.08844253103219,6917.867,95.437,540.662,538.803,0.0
53617.0,STARLINK-4601,PAYLOAD,2024-07-06 00:33:11,15.08843545,0.0001348,53.2158,100.0316,88.0295,272.0851,8.9987e-05,1.145e-05,0.0,0 STARLINK-4601,1 53617U 22104AF  24188.02304833  .00001145  00000-0  89987-4 0  9993,2 53617  53.2158 100.0316 0001348  88.0295 272.0851 15.08843545102727,6917.87,95.437,540.667,538.802,0.0
53617.0,STARLINK-4601,PAYLOAD,2024-07-06 11:40:53,15.08844338,0.0001328,53.2157,97.9503,88.6059,271.5085,0.00012543,1.709e-05,0.0,0 STARLINK-4601,1 53617U 22104AF  24188.48672722  .00001709  00000-0  12543-3 0  9997,2 53617  53.2157  97.9503 0001328  88.6059 271.5085 15.08844338103365,6917.867,95.437,540.651,538.813,0.0
53617.0,STARLINK-4601,PAYLOAD,2024-07-06 21:13:12,15.0883778,0.0001411,53.2176,96.1671,95.3365,264.7788,9.5426e-05,1.231e-05,0.0,0 STARLINK-4601,1 53617U 22104AF  24188.88417216  .00001231  00000-0  95426-4 0  9998,2 53617  53.2176  96.1671 0001411  95.3365 264.7788 15.08837780102851,6917.887,95.438,540.728,538.776,0.0
53617.0,STARLINK-4601,PAYLOAD,2024-07-06 22:48:35,15.08837742,0.0001401,53.2176,95.8699,94.8261,265.2891,9.0052e-05,1.145e-05,0.0,0 STARLINK-4601,1 53617U 22104AF  24188.95041230  .00001145  00000-0  90052-4 0  9999,2 53617  53.2176  95.8699 0001401  94.8261 265.2891 15.08837742103439,6917.887,95.438,540.721,538.783,0.0
53617.0,STARLINK-4601,PAYLOAD,2024-07-07 00:23:58,15.08841936,0.0001477,53.2182,95.5716,100.0297,260.0862,7.2192e-05,8.61e-06,0.0,0 STARLINK-4601,1 53617U 22104AF  24189.01664980  .00000861  00000-0  72192-4 0  9999,2 53617  53.2182  95.5716 0001477 100.0297 260.0862 15.08841936103447,6917.874,95.437,540.761,538.718,0.0
53617.0,STARLINK-4601,PAYLOAD,2024-07-07 21:04:01,15.08809326,0.0001436,53.2181,91.706,114.6025,245.5117,0.00091369,0.00014271,0.0,0 STARLINK-4601,1 53617U 22104AF  24189.87779014  .00014271  00000-0  91369-3 0  9994,2 53617  53.2181  91.7060 0001436 114.6025 245.5117 15.08809326103001,6917.974,95.439,540.833,538.846,0.0
53617.0,STARLINK-4601,PAYLOAD,2024-07-07 22:39:23,15.08821526,0.0001462,53.2188,91.4084,106.6803,253.4349,0.00032752,4.926e-05,0.0,0 STARLINK-4601,1 53617U 22104AF  24189.94401964  .00004926  00000-0  32752-3 0  9995,2 53617  53.2188  91.4084 0001462 106.6803 253.4349 15.08821526103017,6917.937,95.439,540.813,538.79,0.0
53617.0,STARLINK-4601,PAYLOAD,2024-07-08 20:54:46,15.08837973,0.0001554,53.2185,87.2453,108.8758,251.2403,7.6299e-05,9.26e-06,0.0,0 STARLINK-4601,1 53617U 22104AF  24190.87137322  .00000926  00000-0  76299-4 0  9994,2 53617  53.2185  87.2453 0001554 108.8758 251.2403 15.08837973103157,6917.887,95.438,540.827,538.677,0.0
53617.0,STARLINK-4601,PAYLOAD,2024-07-08 22:30:09,15.08838606,0.0001556,53.2185,86.948,108.7442,251.3719,7.8751e-05,9.66e-06,0.0,0 STARLINK-4601,1 53617U 22104AF  24190.93761278  .00000966  00000-0  78751-4 0  9993,2 53617  53.2185  86.9480 0001556 108.7442 251.3719 15.08838606103733,6917.885,95.438,540.826,538.673,0.0
53617.0,STARLINK-4601,PAYLOAD,2024-07-09 09:37:52,15.08836405,0.0001264,53.2172,84.8684,93.7471,266.3666,-2.0811e-05,-6.19e-06,0.0,0 STARLINK-4601,1 53617U 22104AF  24191.40129781 -.00000619  00000-0 -20811-4 0  9994,2 53617  53.2172  84.8684 0001264  93.7471 266.3666 15.08836405103803,6917.891,95.438,540.631,538.882,0.0
53617.0,STARLINK-4601,PAYLOAD,2024-07-09 20:45:34,15.08828248,0.0001591,53.219,82.7854,103.9276,256.1893,-1.9625e-05,-6e-06,0.0,0 STARLINK-4601,1 53617U 22104AF  24191.86498636 -.00000600  00000-0 -19625-4 0  9993,2 53617  53.2190  82.7854 0001591 103.9276 256.1893 15.08828248103309,6917.916,95.438,540.882,538.681,0.0
53617.0,STARLINK-4601,PAYLOAD,2024-07-09 22:20:57,15.08828994,0.0001635,53.2192,82.4882,104.1781,255.9393,-1.2613e-05,-4.89e-06,0.0,0 STARLINK-4601,1 53617U 22104AF  24191.93122615 -.00000489  00000-0 -12613-4 0  9997,2 53617  53.2192  82.4882 0001635 104.1781 255.9393 15.08828994103885,6917.914,95.438,540.91,538.648,0.0
53617.0,STARLINK-4601,PAYLOAD,2024-07-10 09:28:39,15.08836665,0.0001709,53.2199,80.4075,84.7581,275.3606,3.0129e-05,1.91e-06,0.0,0 STARLINK-4601,1 53617U 22104AF  24192.39490343  .00000191  00000-0  30129-4 0  9994,2 53617  53.2199  80.4075 0001709  84.7581 275.3606 15.08836665103389,6917.891,95.438,540.938,538.573,0.0
53617.0,STARLINK-4601,PAYLOAD,2024-07-10 20:36:21,15.08843698,0.0001282,53.2175,78.3248,90.5756,269.5383,6.9784e-05,8.23e-06,0.0,0 STARLINK-4601,1 53617U 22104AF  24192.85857796  .00000823  00000-0  69784-4 0  9995,2 53617  53.2175  78.3248 0001282  90.5756 269.5383 15.08843698103455,6917.869,95.437,540.621,538.847,0.0
53617.0,STARLINK-4601,PAYLOAD,2024-07-10 22:11:44,15.08845225,0.0001292,53.2173,78.0274,90.625,269.489,8.8286e-05,1.118e-05,0.0,0 STARLINK-4601,1 53617U 22104AF  24192.92481682  .00001118  00000-0  88286-4 0  9996,2 53617  53.2173  78.0274 0001292  90.6250 269.4890 15.08845225104035,6917.864,95.437,540.623,538.836,0.0
